{
  "type": "FeatureCollection",
  "features": [
    {
      "type": "Feature",
      "properties": {
        "norad_id": 34845,
        "name": "COSMOS 2251 DEB",
        "group": "cosmos-2251-debris",
        "lat": 33.52861185737088,
        "lon": -24.952324816422344,
        "alt_km": 752.3571133169808,
        "timestamp": "2025-12-03T06:58:43.637292+00:00",
        "meta_object_name": "COSMOS 2251 DEB",
        "meta_object_id": "1993-036ABP",
        "meta_epoch": "2025-11-28T06:44:43.474272",
        "meta_mean_motion": 14.45815545,
        "meta_eccentricity": 0.00217969,
        "meta_inclination": 74.024,
        "meta_ra_of_asc_node": 175.3373,
        "meta_arg_of_pericenter": 338.6212,
        "meta_mean_anomaly": 21.4033,
        "meta_ephemeris_type": 0,
        "meta_classification_type": "U",
        "meta_norad_cat_id": 34845,
        "meta_element_set_no": 999,
        "meta_rev_at_epoch": 87257,
        "meta_bstar": 0.00025523358,
        "meta_mean_motion_dot": 8.81e-06,
        "meta_mean_motion_ddot": 0,
        "tle_line1": "1 34845U 93036ABP 25332.28105873  .00000881  00000+0  25523-3 0  9990",
        "tle_line2": "2 34845  74.0240 175.3373 0021796 338.6212  21.4033 14.45815545872576"
      },
      "geometry": {
        "type": "Point",
        "coordinates": [
          -24.952324816422344,
          33.52861185737088
        ]
      }
    },
    {
      "type": "Feature",
      "properties": {
        "norad_id": 34846,
        "name": "COSMOS 2251 DEB",
        "group": "cosmos-2251-debris",
        "lat": 37.49849745547643,
        "lon": -67.86377884891564,
        "alt_km": 720.7476262164982,
        "timestamp": "2025-12-03T06:58:43.637302+00:00",
        "meta_object_name": "COSMOS 2251 DEB",
        "meta_object_id": "1993-036ABQ",
        "meta_epoch": "2025-12-02T20:50:37.400352",
        "meta_mean_motion": 14.47103595,
        "meta_eccentricity": 0.0025874,
        "meta_inclination": 74.0308,
        "meta_ra_of_asc_node": 280.2333,
        "meta_arg_of_pericenter": 347.9737,
        "meta_mean_anomaly": 12.08,
        "meta_ephemeris_type": 0,
        "meta_classification_type": "U",
        "meta_norad_cat_id": 34846,
        "meta_element_set_no": 999,
        "meta_rev_at_epoch": 87261,
        "meta_bstar": 0.0013351,
        "meta_mean_motion_dot": 4.863e-05,
        "meta_mean_motion_ddot": 0,
        "tle_line1": "1 34846U 93036ABQ 25336.86848843  .00004863  00000+0  13351-2 0  9999",
        "tle_line2": "2 34846  74.0308 280.2333 0025874 347.9737  12.0800 14.47103595872610"
      },
      "geometry": {
        "type": "Point",
        "coordinates": [
          -67.86377884891564,
          37.49849745547643
        ]
      }
    },
    {
      "type": "Feature",
      "properties": {
        "norad_id": 34852,
        "name": "COSMOS 2251 DEB",
        "group": "cosmos-2251-debris",
        "lat": 73.99904736836783,
        "lon": 13.554737381117107,
        "alt_km": 756.2246524605189,
        "timestamp": "2025-12-03T06:58:43.637312+00:00",
        "meta_object_name": "COSMOS 2251 DEB",
        "meta_object_id": "1993-036ABW",
        "meta_epoch": "2025-12-02T05:29:46.536576",
        "meta_mean_motion": 14.36991388,
        "meta_eccentricity": 0.0015746,
        "meta_inclination": 74.0326,
        "meta_ra_of_asc_node": 282.3019,
        "meta_arg_of_pericenter": 28.2884,
        "meta_mean_anomaly": 331.9121,
        "meta_ephemeris_type": 0,
        "meta_classification_type": "U",
        "meta_norad_cat_id": 34852,
        "meta_element_set_no": 999,
        "meta_rev_at_epoch": 87383,
        "meta_bstar": 0.00017468,
        "meta_mean_motion_dot": 4.92e-06,
        "meta_mean_motion_ddot": 0,
        "tle_line1": "1 34852U 93036ABW 25336.22901084  .00000492  00000+0  17468-3 0  9991",
        "tle_line2": "2 34852  74.0326 282.3019 0015746  28.2884 331.9121 14.36991388873837"
      },
      "geometry": {
        "type": "Point",
        "coordinates": [
          13.554737381117107,
          73.99904736836783
        ]
      }
    },
    {
      "type": "Feature",
      "properties": {
        "norad_id": 34854,
        "name": "COSMOS 2251 DEB",
        "group": "cosmos-2251-debris",
        "lat": 74.01623260801887,
        "lon": -91.85743219100962,
        "alt_km": 676.576225201271,
        "timestamp": "2025-12-03T06:58:43.637321+00:00",
        "meta_object_name": "COSMOS 2251 DEB",
        "meta_object_id": "1993-036ABY",
        "meta_epoch": "2025-12-01T22:02:46.134528",
        "meta_mean_motion": 14.76470003,
        "meta_eccentricity": 0.00662316,
        "meta_inclination": 74.0289,
        "meta_ra_of_asc_node": 179.791,
        "meta_arg_of_pericenter": 293.6475,
        "meta_mean_anomaly": 65.7756,
        "meta_ephemeris_type": 0,
        "meta_classification_type": "U",
        "meta_norad_cat_id": 34854,
        "meta_element_set_no": 999,
        "meta_rev_at_epoch": 71722,
        "meta_bstar": 0.00065989077,
        "meta_mean_motion_dot": 4.729e-05,
        "meta_mean_motion_ddot": 0,
        "tle_line1": "1 34854U 93036ABY 25335.91858952  .00004729  00000+0  65989-3 0  9991",
        "tle_line2": "2 34854  74.0289 179.7910 0066231 293.6475  65.7756 14.76470003717221"
      },
      "geometry": {
        "type": "Point",
        "coordinates": [
          -91.85743219100962,
          74.01623260801887
        ]
      }
    },
    {
      "type": "Feature",
      "properties": {
        "norad_id": 34856,
        "name": "COSMOS 2251 DEB",
        "group": "cosmos-2251-debris",
        "lat": -68.15805023002716,
        "lon": -29.99977422049439,
        "alt_km": 534.3166633999108,
        "timestamp": "2025-12-03T06:58:43.637350+00:00",
        "meta_object_name": "COSMOS 2251 DEB",
        "meta_object_id": "1993-036ACA",
        "meta_epoch": "2025-12-02T11:02:06.604224",
        "meta_mean_motion": 15.05140167,
        "meta_eccentricity": 0.00347835,
        "meta_inclination": 73.9965,
        "meta_ra_of_asc_node": 105.9765,
        "meta_arg_of_pericenter": 243.8774,
        "meta_mean_anomaly": 190.0896,
        "meta_ephemeris_type": 0,
        "meta_classification_type": "U",
        "meta_norad_cat_id": 34856,
        "meta_element_set_no": 999,
        "meta_rev_at_epoch": 88957,
        "meta_bstar": 0.0024540063,
        "meta_mean_motion_dot": 0.00035572,
        "meta_mean_motion_ddot": 0,
        "tle_line1": "1 34856U 93036ACA 25336.45979866  .00035572  00000+0  24540-2 0  9998",
        "tle_line2": "2 34856  73.9965 105.9765 0034783 243.8774 190.0896 15.05140167889570"
      },
      "geometry": {
        "type": "Point",
        "coordinates": [
          -29.99977422049439,
          -68.15805023002716
        ]
      }
    },
    {
      "type": "Feature",
      "properties": {
        "norad_id": 34857,
        "name": "COSMOS 2251 DEB",
        "group": "cosmos-2251-debris",
        "lat": 53.58812719454373,
        "lon": 147.72099516474253,
        "alt_km": 737.3914122299029,
        "timestamp": "2025-12-03T06:58:43.637361+00:00",
        "meta_object_name": "COSMOS 2251 DEB",
        "meta_object_id": "1993-036ACB",
        "meta_epoch": "2025-12-02T04:38:08.860704",
        "meta_mean_motion": 14.58704232,
        "meta_eccentricity": 0.0066253,
        "meta_inclination": 74.0142,
        "meta_ra_of_asc_node": 126.9423,
        "meta_arg_of_pericenter": 253.2264,
        "meta_mean_anomaly": 161.8298,
        "meta_ephemeris_type": 0,
        "meta_classification_type": "U",
        "meta_norad_cat_id": 34857,
        "meta_element_set_no": 999,
        "meta_rev_at_epoch": 87747,
        "meta_bstar": 0.0014364,
        "meta_mean_motion_dot": 6.884e-05,
        "meta_mean_motion_ddot": 0,
        "tle_line1": "1 34857U 93036ACB 25336.19315811  .00006884  00000+0  14364-2 0  9991",
        "tle_line2": "2 34857  74.0142 126.9423 0066253 253.2264 161.8298 14.58704232877474"
      },
      "geometry": {
        "type": "Point",
        "coordinates": [
          147.72099516474253,
          53.58812719454373
        ]
      }
    },
    {
      "type": "Feature",
      "properties": {
        "norad_id": 34859,
        "name": "COSMOS 2251 DEB",
        "group": "cosmos-2251-debris",
        "lat": -47.93249233337884,
        "lon": -19.216200848400995,
        "alt_km": 532.7457291141645,
        "timestamp": "2025-12-03T06:58:43.637372+00:00",
        "meta_object_name": "COSMOS 2251 DEB",
        "meta_object_id": "1993-036ACD",
        "meta_epoch": "2025-12-02T12:49:14.377152",
        "meta_mean_motion": 15.12082305,
        "meta_eccentricity": 0.00046403,
        "meta_inclination": 74.0336,
        "meta_ra_of_asc_node": 0.8454,
        "meta_arg_of_pericenter": 316.5939,
        "meta_mean_anomaly": 196.0454,
        "meta_ephemeris_type": 0,
        "meta_classification_type": "U",
        "meta_norad_cat_id": 34859,
        "meta_element_set_no": 999,
        "meta_rev_at_epoch": 88204,
        "meta_bstar": 0.00516522,
        "meta_mean_motion_dot": 0.00090024,
        "meta_mean_motion_ddot": 0,
        "tle_line1": "1 34859U 93036ACD 25336.53419418  .00090024  00000+0  51652-2 0  9999",
        "tle_line2": "2 34859  74.0336   0.8454 0004640 316.5939 196.0454 15.12082305882043"
      },
      "geometry": {
        "type": "Point",
        "coordinates": [
          -19.216200848400995,
          -47.93249233337884
        ]
      }
    }
  ]
}